FLOCK 4G-18             
1 62680U 25009BZ  26068.19114186  .00011766  00000+0  44319-3 0  9995
2 62680  97.4054 150.5008 0004100 335.7331  24.3715 15.27241676121267
STARLINK-36447          
1 67425U 26005X   26068.53504780  .00029523  00000+0  10777-2 0  9995
2 67425  43.0012 238.7868 0002124 286.3221  73.7398 15.27590263  8679
